{
  "type": "FeatureCollection",
  "features": [
    {
      "type": "Feature",
      "properties": {
        "norad_id": 29904,
        "name": "FENGYUN 1C DEB",
        "group": "fengyun-1c-debris",
        "lat": -56.827926524302434,
        "lon": -166.1605083219967,
        "alt_km": 701.0080892220112,
        "timestamp": "2025-12-15T20:48:54.155610+00:00",
        "meta_object_name": "FENGYUN 1C DEB",
        "meta_object_id": "1999-025HA",
        "meta_epoch": "2025-12-14T15:26:14.564832",
        "meta_mean_motion": 14.44488797,
        "meta_eccentricity": 0.02076766,
        "meta_inclination": 99.0418,
        "meta_ra_of_asc_node": 26.6364,
        "meta_arg_of_pericenter": 312.998,
        "meta_mean_anomaly": 45.3965,
        "meta_ephemeris_type": 0,
        "meta_classification_type": "U",
        "meta_norad_cat_id": 29904,
        "meta_element_set_no": 999,
        "meta_rev_at_epoch": 99091,
        "meta_bstar": 0.00045572585,
        "meta_mean_motion_dot": 1.987e-05,
        "meta_mean_motion_ddot": 0,
        "tle_line1": "1 29904U 99025HA  25348.64322413  .00001987  00000+0  45573-3 0  9997",
        "tle_line2": "2 29904  99.0418  26.6364 0207676 312.9980  45.3965 14.44488797990910"
      },
      "geometry": {
        "type": "Point",
        "coordinates": [
          -166.1605083219967,
          -56.827926524302434
        ]
      }
    },
    {
      "type": "Feature",
      "properties": {
        "norad_id": 29906,
        "name": "FENGYUN 1C DEB",
        "group": "fengyun-1c-debris",
        "lat": -32.90111050418536,
        "lon": -92.37445451268017,
        "alt_km": 725.07612842865,
        "timestamp": "2025-12-15T20:48:54.155620+00:00",
        "meta_object_name": "FENGYUN 1C DEB",
        "meta_object_id": "1999-025HC",
        "meta_epoch": "2025-12-14T05:44:18.375648",
        "meta_mean_motion": 14.49679801,
        "meta_eccentricity": 0.0036994,
        "meta_inclination": 98.7051,
        "meta_ra_of_asc_node": 91.6336,
        "meta_arg_of_pericenter": 144.7904,
        "meta_mean_anomaly": 215.5744,
        "meta_ephemeris_type": 0,
        "meta_classification_type": "U",
        "meta_norad_cat_id": 29906,
        "meta_element_set_no": 999,
        "meta_rev_at_epoch": 98179,
        "meta_bstar": 0.0026082399,
        "meta_mean_motion_dot": 0.00010086,
        "meta_mean_motion_ddot": 0,
        "tle_line1": "1 29906U 99025HC  25348.23910157  .00010086  00000+0  26082-2 0  9995",
        "tle_line2": "2 29906  98.7051  91.6336 0036994 144.7904 215.5744 14.49679801981797"
      },
      "geometry": {
        "type": "Point",
        "coordinates": [
          -92.37445451268017,
          -32.90111050418536
        ]
      }
    },
    {
      "type": "Feature",
      "properties": {
        "norad_id": 29907,
        "name": "FENGYUN 1C DEB",
        "group": "fengyun-1c-debris",
        "lat": -66.48777512592247,
        "lon": 78.23628195670574,
        "alt_km": 822.4241982664325,
        "timestamp": "2025-12-15T20:48:54.155630+00:00",
        "meta_object_name": "FENGYUN 1C DEB",
        "meta_object_id": "1999-025HD",
        "meta_epoch": "2025-12-14T16:48:02.457216",
        "meta_mean_motion": 14.11646567,
        "meta_eccentricity": 0.00840707,
        "meta_inclination": 99.1118,
        "meta_ra_of_asc_node": 55.4048,
        "meta_arg_of_pericenter": 243.9887,
        "meta_mean_anomaly": 238.3842,
        "meta_ephemeris_type": 0,
        "meta_classification_type": "U",
        "meta_norad_cat_id": 29907,
        "meta_element_set_no": 999,
        "meta_rev_at_epoch": 96626,
        "meta_bstar": 0.0014940686,
        "meta_mean_motion_dot": 2.763e-05,
        "meta_mean_motion_ddot": 0,
        "tle_line1": "1 29907U 99025HD  25348.70002844  .00002763  00000+0  14941-2 0  9997",
        "tle_line2": "2 29907  99.1118  55.4048 0084070 243.9887 238.3842 14.11646567966264"
      },
      "geometry": {
        "type": "Point",
        "coordinates": [
          78.23628195670574,
          -66.48777512592247
        ]
      }
    },
    {
      "type": "Feature",
      "properties": {
        "norad_id": 29909,
        "name": "FENGYUN 1C DEB",
        "group": "fengyun-1c-debris",
        "lat": -9.803156173263744,
        "lon": 95.27753819552238,
        "alt_km": 686.8057688552726,
        "timestamp": "2025-12-15T20:48:54.155640+00:00",
        "meta_object_name": "FENGYUN 1C DEB",
        "meta_object_id": "1999-025HF",
        "meta_epoch": "2025-12-14T20:39:12.478176",
        "meta_mean_motion": 14.55167525,
        "meta_eccentricity": 0.00382044,
        "meta_inclination": 98.6345,
        "meta_ra_of_asc_node": 92.7332,
        "meta_arg_of_pericenter": 8.5754,
        "meta_mean_anomaly": 110.9279,
        "meta_ephemeris_type": 0,
        "meta_classification_type": "U",
        "meta_norad_cat_id": 29909,
        "meta_element_set_no": 999,
        "meta_rev_at_epoch": 98436,
        "meta_bstar": 0.0013130309,
        "meta_mean_motion_dot": 5.684e-05,
        "meta_mean_motion_ddot": 0,
        "tle_line1": "1 29909U 99025HF  25348.86056109  .00005684  00000+0  13130-2 0  9993",
        "tle_line2": "2 29909  98.6345  92.7332 0038204   8.5754 110.9279 14.55167525984368"
      },
      "geometry": {
        "type": "Point",
        "coordinates": [
          95.27753819552238,
          -9.803156173263744
        ]
      }
    },
    {
      "type": "Feature",
      "properties": {
        "norad_id": 29911,
        "name": "FENGYUN 1C DEB",
        "group": "fengyun-1c-debris",
        "lat": 80.93075557246814,
        "lon": -41.02547259095538,
        "alt_km": 810.2535216307042,
        "timestamp": "2025-12-15T20:48:54.155651+00:00",
        "meta_object_name": "FENGYUN 1C DEB",
        "meta_object_id": "1999-025HH",
        "meta_epoch": "2025-12-14T14:39:05.114304",
        "meta_mean_motion": 14.18861458,
        "meta_eccentricity": 0.00274719,
        "meta_inclination": 98.7159,
        "meta_ra_of_asc_node": 31.6912,
        "meta_arg_of_pericenter": 145.7844,
        "meta_mean_anomaly": 5.8827,
        "meta_ephemeris_type": 0,
        "meta_classification_type": "U",
        "meta_norad_cat_id": 29911,
        "meta_element_set_no": 999,
        "meta_rev_at_epoch": 97457,
        "meta_bstar": 0.00076784323,
        "meta_mean_motion_dot": 1.561e-05,
        "meta_mean_motion_ddot": 0,
        "tle_line1": "1 29911U 99025HH  25348.61047586  .00001561  00000+0  76784-3 0  9993",
        "tle_line2": "2 29911  98.7159  31.6912 0027471 145.7844   5.8827 14.18861458974577"
      },
      "geometry": {
        "type": "Point",
        "coordinates": [
          -41.02547259095538,
          80.93075557246814
        ]
      }
    },
    {
      "type": "Feature",
      "properties": {
        "norad_id": 29912,
        "name": "FENGYUN 1C DEB",
        "group": "fengyun-1c-debris",
        "lat": -42.02665685333765,
        "lon": 95.36059312651244,
        "alt_km": 764.2670750024217,
        "timestamp": "2025-12-15T20:48:54.155661+00:00",
        "meta_object_name": "FENGYUN 1C DEB",
        "meta_object_id": "1999-025HJ",
        "meta_epoch": "2025-12-14T18:56:58.331328",
        "meta_mean_motion": 14.43017862,
        "meta_eccentricity": 0.00430705,
        "meta_inclination": 98.7383,
        "meta_ra_of_asc_node": 86.2881,
        "meta_arg_of_pericenter": 213.0115,
        "meta_mean_anomaly": 268.5108,
        "meta_ephemeris_type": 0,
        "meta_classification_type": "U",
        "meta_norad_cat_id": 29912,
        "meta_element_set_no": 999,
        "meta_rev_at_epoch": 98068,
        "meta_bstar": 0.0018281151,
        "meta_mean_motion_dot": 6.15e-05,
        "meta_mean_motion_ddot": 0,
        "tle_line1": "1 29912U 99025HJ  25348.78956402  .00006150  00000+0  18281-2 0  9994",
        "tle_line2": "2 29912  98.7383  86.2881 0043070 213.0115 268.5108 14.43017862980680"
      },
      "geometry": {
        "type": "Point",
        "coordinates": [
          95.36059312651244,
          -42.02665685333765
        ]
      }
    },
    {
      "type": "Feature",
      "properties": {
        "norad_id": 29913,
        "name": "FENGYUN 1C DEB",
        "group": "fengyun-1c-debris",
        "lat": 26.352969279612992,
        "lon": -15.761951638035036,
        "alt_km": 892.3454521668027,
        "timestamp": "2025-12-15T20:48:54.155671+00:00",
        "meta_object_name": "FENGYUN 1C DEB",
        "meta_object_id": "1999-025HK",
        "meta_epoch": "2025-12-14T22:48:57.403296",
        "meta_mean_motion": 14.07384624,
        "meta_eccentricity": 0.00618711,
        "meta_inclination": 98.7877,
        "meta_ra_of_asc_node": 347.7415,
        "meta_arg_of_pericenter": 265.1329,
        "meta_mean_anomaly": 159.4691,
        "meta_ephemeris_type": 0,
        "meta_classification_type": "U",
        "meta_norad_cat_id": 29913,
        "meta_element_set_no": 999,
        "meta_rev_at_epoch": 96996,
        "meta_bstar": 0.00042940546,
        "meta_mean_motion_dot": 6.91e-06,
        "meta_mean_motion_ddot": 0,
        "tle_line1": "1 29913U 99025HK  25348.95066439  .00000691  00000+0  42941-3 0  9991",
        "tle_line2": "2 29913  98.7877 347.7415 0061871 265.1329 159.4691 14.07384624969967"
      },
      "geometry": {
        "type": "Point",
        "coordinates": [
          -15.761951638035036,
          26.352969279612992
        ]
      }
    }
  ]
}